GLOBALSTAR M045 [-]     
1 25676U 99019A   24100.76996112 -.00000084  00000+0  85754-4 0  9997
2 25676  51.9952 100.5690 0000621  89.1267  82.7205 12.27034529140185
GLOBALSTAR M019 [-]     
1 25677U 99019B   24101.54064684 -.00000117  00000+0 -27865-3 0  9991
2 25677  51.9872 198.3023 0001582 155.1821 218.2570 12.13855254132799
GLOBALSTAR M044 [-]     
1 25678U 99019C   24101.19137319 -.00000079  00000+0  68353-4 0  9993
2 25678  51.9952  96.4619 0006156 285.4473 156.9601 11.90230560119744
GLOBALSTAR M042 [-]     
1 25679U 99019D   24101.54605388 -.00000025  00000+0  63513-3 0  9992
2 25679  52.0002 192.2861 0003535 127.8500 245.2235 12.22059269132432
GLOBALSTAR M025 [-]     
1 25770U 99031A   24100.90941550 -.00000075  00000+0 -23464-3 0  9998
2 25770  51.9803  82.9801 0001395 141.6785 230.1259 11.22550047433051
GLOBALSTAR M049 [-]     
1 25771U 99031B   24100.93742616 -.00000100  00000+0 -11986-2 0  9998
2 25771  51.9853  95.9068 0002871   8.1016 351.9826 11.12104333 69228
GLOBALSTAR M047 [-]     
1 25772U 99031C   24100.82228270 -.00000047  00000+0  61716-3 0  9998
2 25772  51.9804 134.5424 0016548 238.1653 121.7542 11.31919689422038
GLOBALSTAR M052 [-]     
1 25773U 99031D   24100.60456425 -.00000097  00000+0 -10377-2 0  9992
2 25773  51.9852 211.4365 0003204 167.7094 205.0339 11.15050028430148
